OBJECT_NAME,OBJECT_ID,EPOCH,MEAN_MOTION,ECCENTRICITY,INCLINATION,RA_OF_ASC_NODE,ARG_OF_PERICENTER,MEAN_ANOMALY,EPHEMERIS_TYPE,CLASSIFICATION_TYPE,NORAD_CAT_ID,ELEMENT_SET_NO,REV_AT_EPOCH,BSTAR,MEAN_MOTION_DOT,MEAN_MOTION_DDOT
ONEWEB-0130,2020-100U,2026-07-14T18:54:20.242656,13.12442796,.0001945,87.8968,345.1654,98.3757,261.7592,0,U,47276,999,26826,.112E-2,.416E-5,0
ONEWEB-0131,2020-100V,2026-07-14T18:49:27.668928,13.12442089,.0002013,87.8958,345.1812,103.9302,256.2050,0,U,47277,999,26830,.13079E-2,.483E-5,0
ONEWEB-0132,2020-100W,2026-07-14T19:30:54.849312,13.12441580,.0001829,87.8963,345.1778,98.4807,261.6528,0,U,47278,999,26820,-.47627E-3,-.159E-5,0
ONEWEB-0133,2020-100X,2026-07-14T19:55:05.888064,13.12443647,.0001807,87.8974,345.1537,100.9436,259.1896,0,U,47279,999,26836,-.11968E-2,-.418E-5,0
ONEWEB-0134,2020-100Y,2026-07-14T19:11:24.442080,13.12441347,.0002044,87.8974,345.1568,102.5574,257.5784,0,U,47280,999,26833,.64287E-3,.244E-5,0
ONEWEB-0135,2020-100Z,2026-07-14T20:19:42.362112,13.12444443,.0001985,87.8962,345.1671,104.4379,255.6970,0,U,47281,999,26836,.32542E-4,.24E-6,0
ONEWEB-0136,2020-100AA,2026-07-14T11:37:38.640864,13.12442669,.00021024,87.8967,345.2225,103.5814,256.5549,0,U,47282,999,26824,.12018461E-2,.445E-5,0
ONEWEB-0137,2020-100AB,2026-07-14T19:45:32.660352,13.12442740,.0001815,87.8974,345.1662,92.0612,268.0724,0,U,47283,999,26819,-.11673E-2,-.407E-5,0
ONEWEB-0138,2020-100AC,2026-07-14T19:13:50.920320,13.12441832,.0002043,87.8970,345.1753,99.1787,260.9572,0,U,47284,999,26827,.73288E-3,.276E-5,0
ONEWEB-0139,2020-100AD,2026-07-14T20:12:35.925408,13.12443458,.000192,87.8969,345.1534,96.4622,263.6725,0,U,47285,999,26835,-.52821E-3,-.177E-5,0
ONEWEB-0140,2020-100AE,2026-07-14T19:06:31.945248,13.12440539,.0001714,87.8971,345.1536,99.4935,260.6387,0,U,47286,999,26831,.4376E-3,.17E-5,0
ONEWEB-0141,2020-100AF,2026-07-14T20:12:11.025792,13.12444268,.0001879,87.8971,345.1493,87.4562,272.6782,0,U,47287,999,26830,-.50098E-3,-.168E-5,0
ONEWEB-0142,2020-100AG,2026-07-14T19:55:30.368640,13.12443980,.00022,87.8965,345.1717,89.1400,270.9981,0,U,47288,999,26829,-.11709E-2,-.409E-5,0
ONEWEB-0143,2020-100AH,2026-07-14T20:09:56.785248,13.12444032,.0001859,87.8964,345.1693,95.0581,265.0760,0,U,47289,999,26827,-.67797E-3,-.231E-5,0
ONEWEB-0144,2020-100AJ,2026-07-14T19:28:28.866144,13.12441470,.0002218,87.8975,345.1506,97.0773,263.0608,0,U,47290,999,26819,-.31344E-3,-.1E-5,0
ONEWEB-0145,2020-100AK,2026-07-14T18:47:01.252032,13.12446453,.0001769,87.8951,345.1821,107.5218,252.6104,0,U,47291,999,26838,-.11654E-1,-.4178E-4,0
ONEWEB-0146,2020-100AL,2026-07-14T18:42:07.917984,13.12444441,.0001557,87.8967,345.1754,99.9828,260.1476,0,U,47292,999,26829,.11012E-2,.409E-5,0
ONEWEB-0147,2020-100AM,2026-07-14T19:43:06.583008,13.12442660,.0001885,87.8972,345.1494,100.8973,259.2367,0,U,47293,999,26819,-.10384E-2,-.361E-5,0
ONEWEB-0115,2021-025A,2026-07-14T19:52:34.593024,13.13461539,.0001845,87.8980,314.7233,101.8806,258.2530,0,U,48042,999,25722,-.80716E-3,-.282E-5,0
ONEWEB-0152,2021-025B,2026-07-14T20:12:05.037408,13.13473989,.000186,87.8987,314.7187,101.8915,258.2423,0,U,48043,999,25718,.99563E-4,.49E-6,0
ONEWEB-0153,2021-025C,2026-07-14T19:40:23.077056,13.13469501,.0002013,87.8978,314.7238,98.7523,261.3834,0,U,48044,999,25717,-.83786E-3,-.293E-5,0
ONEWEB-0154,2021-025D,2026-07-14T19:35:30.721056,13.13469815,.0001964,87.8986,314.7235,106.0948,254.0398,0,U,48045,999,25713,-.88804E-3,-.312E-5,0
ONEWEB-0116,2021-025E,2026-07-14T20:31:35.194080,13.13470099,.0001837,87.8987,314.7130,103.6601,256.4733,0,U,48046,999,25728,.83642E-3,.318E-5,0
ONEWEB-0150,2021-025F,2026-07-14T19:57:27.553824,13.13470033,.0001921,87.8989,314.7153,94.0523,266.0826,0,U,48047,999,25717,-.60139E-3,-.207E-5,0
ONEWEB-0107,2021-025G,2026-07-14T19:59:53.878272,13.13472693,.0002126,87.8986,314.7112,97.6570,262.4801,0,U,48048,999,25715,-.453E-3,-.153E-5,0
ONEWEB-0101,2021-025H,2026-07-14T19:06:16.037280,13.13470294,.0002078,87.8977,314.7313,103.3489,256.7872,0,U,48049,999,25712,.30944E-3,.126E-5,0
ONEWEB-0113,2021-025J,2026-07-14T19:28:33.549888,13.13890944,.0001876,87.8981,314.6355,96.0802,264.0541,0,U,48050,999,25723,-.7648E-3,-.268E-5,0
ONEWEB-0112,2021-025K,2026-07-14T20:07:12.539712,13.13470492,.0002196,87.8985,314.7083,102.7750,257.3624,0,U,48051,999,25722,-.10395E-4,.9E-7,0
ONEWEB-0156,2021-025L,2026-07-14T20:19:23.376576,13.13472233,.0002024,87.8985,314.7163,95.9587,264.1773,0,U,48052,999,25720,.18338E-3,.8E-6,0
ONEWEB-0161,2021-025M,2026-07-14T19:42:49.340160,13.13469410,.0002095,87.8985,314.7222,96.4611,263.6757,0,U,48053,999,25713,-.95954E-3,-.338E-5,0
