[
  {
    "name": "ONEWEB-0130",
    "noradId": "47276",
    "line1": "1 47276U 20100U   26195.78773429  .00000416  00000+0  11200-2 0  9995",
    "line2": "2 47276  87.8968 345.1654 0001945  98.3757 261.7592 13.12442796268265"
  },
  {
    "name": "ONEWEB-0131",
    "noradId": "47277",
    "line1": "1 47277U 20100V   26195.78434802  .00000483  00000+0  13079-2 0  9995",
    "line2": "2 47277  87.8958 345.1812 0002013 103.9302 256.2050 13.12442089268305"
  },
  {
    "name": "ONEWEB-0132",
    "noradId": "47278",
    "line1": "1 47278U 20100W   26195.81313483 -.00000159  00000+0 -47627-3 0  9990",
    "line2": "2 47278  87.8963 345.1778 0001829  98.4807 261.6528 13.12441580268209"
  },
  {
    "name": "ONEWEB-0133",
    "noradId": "47279",
    "line1": "1 47279U 20100X   26195.82992926 -.00000418  00000+0 -11968-2 0  9993",
    "line2": "2 47279  87.8974 345.1537 0001807 100.9436 259.1896 13.12443647268361"
  },
  {
    "name": "ONEWEB-0134",
    "noradId": "47280",
    "line1": "1 47280U 20100Y   26195.79958845  .00000244  00000+0  64287-3 0  9991",
    "line2": "2 47280  87.8974 345.1568 0002044 102.5574 257.5784 13.12441347268332"
  },
  {
    "name": "ONEWEB-0135",
    "noradId": "47281",
    "line1": "1 47281U 20100Z   26195.84701808  .00000024  00000+0  32542-4 0  9999",
    "line2": "2 47281  87.8962 345.1671 0001985 104.4379 255.6970 13.12444443268361"
  },
  {
    "name": "ONEWEB-0136",
    "noradId": "47282",
    "line1": "1 47282U 20100AA  26195.48447501  .00000445  00000+0  12018-2 0  9998",
    "line2": "2 47282  87.8967 345.2225 0002102 103.5814 256.5549 13.12442669268246"
  },
  {
    "name": "ONEWEB-0137",
    "noradId": "47283",
    "line1": "1 47283U 20100AB  26195.82329468 -.00000407  00000+0 -11673-2 0  9994",
    "line2": "2 47283  87.8974 345.1662 0001815  92.0612 268.0724 13.12442740268194"
  },
  {
    "name": "ONEWEB-0138",
    "noradId": "47284",
    "line1": "1 47284U 20100AC  26195.80128380  .00000276  00000+0  73288-3 0  9996",
    "line2": "2 47284  87.8970 345.1753 0002043  99.1787 260.9572 13.12441832268279"
  },
  {
    "name": "ONEWEB-0139",
    "noradId": "47285",
    "line1": "1 47285U 20100AD  26195.84208247 -.00000177  00000+0 -52821-3 0  9994",
    "line2": "2 47285  87.8969 345.1534 0001920  96.4622 263.6725 13.12443458268351"
  },
  {
    "name": "ONEWEB-0140",
    "noradId": "47286",
    "line1": "1 47286U 20100AE  26195.79620307  .00000170  00000+0  43760-3 0  9997",
    "line2": "2 47286  87.8971 345.1536 0001714  99.4935 260.6387 13.12440539268312"
  },
  {
    "name": "ONEWEB-0141",
    "noradId": "47287",
    "line1": "1 47287U 20100AF  26195.84179428 -.00000168  00000+0 -50098-3 0  9998",
    "line2": "2 47287  87.8971 345.1493 0001879  87.4562 272.6782 13.12444268268304"
  },
  {
    "name": "ONEWEB-0142",
    "noradId": "47288",
    "line1": "1 47288U 20100AG  26195.83021260 -.00000409  00000+0 -11709-2 0  9991",
    "line2": "2 47288  87.8965 345.1717 0002200  89.1400 270.9981 13.12443980268296"
  },
  {
    "name": "ONEWEB-0143",
    "noradId": "47289",
    "line1": "1 47289U 20100AH  26195.84024057 -.00000231  00000+0 -67797-3 0  9992",
    "line2": "2 47289  87.8964 345.1693 0001859  95.0581 265.0760 13.12444032268271"
  },
  {
    "name": "ONEWEB-0144",
    "noradId": "47290",
    "line1": "1 47290U 20100AJ  26195.81144521 -.00000100  00000+0 -31344-3 0  9994",
    "line2": "2 47290  87.8975 345.1506 0002218  97.0773 263.0608 13.12441470268196"
  },
  {
    "name": "ONEWEB-0145",
    "noradId": "47291",
    "line1": "1 47291U 20100AK  26195.78265338 -.00004178  00000+0 -11654-1 0  9990",
    "line2": "2 47291  87.8951 345.1821 0001769 107.5218 252.6104 13.12446453268384"
  },
  {
    "name": "ONEWEB-0146",
    "noradId": "47292",
    "line1": "1 47292U 20100AL  26195.77925831  .00000409  00000+0  11012-2 0  9991",
    "line2": "2 47292  87.8967 345.1754 0001557  99.9828 260.1476 13.12444441268294"
  },
  {
    "name": "ONEWEB-0147",
    "noradId": "47293",
    "line1": "1 47293U 20100AM  26195.82160397 -.00000361  00000+0 -10384-2 0  9996",
    "line2": "2 47293  87.8972 345.1494 0001885 100.8973 259.2367 13.12442660268197"
  },
  {
    "name": "ONEWEB-0115",
    "noradId": "48042",
    "line1": "1 48042U 21025A   26195.82817816 -.00000282  00000+0 -80716-3 0  9990",
    "line2": "2 48042  87.8980 314.7233 0001845 101.8806 258.2530 13.13461539257224"
  },
  {
    "name": "ONEWEB-0152",
    "noradId": "48043",
    "line1": "1 48043U 21025B   26195.84172497  .00000049  00000+0  99563-4 0  9992",
    "line2": "2 48043  87.8987 314.7187 0001860 101.8915 258.2423 13.13473989257186"
  },
  {
    "name": "ONEWEB-0153",
    "noradId": "48044",
    "line1": "1 48044U 21025C   26195.81971154 -.00000293  00000+0 -83786-3 0  9999",
    "line2": "2 48044  87.8978 314.7238 0002013  98.7523 261.3834 13.13469501257179"
  },
  {
    "name": "ONEWEB-0154",
    "noradId": "48045",
    "line1": "1 48045U 21025D   26195.81632779 -.00000312  00000+0 -88804-3 0  9995",
    "line2": "2 48045  87.8986 314.7235 0001964 106.0948 254.0398 13.13469815257132"
  },
  {
    "name": "ONEWEB-0116",
    "noradId": "48046",
    "line1": "1 48046U 21025E   26195.85526845  .00000318  00000+0  83642-3 0  9995",
    "line2": "2 48046  87.8987 314.7130 0001837 103.6601 256.4733 13.13470099257287"
  },
  {
    "name": "ONEWEB-0150",
    "noradId": "48047",
    "line1": "1 48047U 21025F   26195.83156891 -.00000207  00000+0 -60139-3 0  9999",
    "line2": "2 48047  87.8989 314.7153 0001921  94.0523 266.0826 13.13470033257171"
  },
  {
    "name": "ONEWEB-0107",
    "noradId": "48048",
    "line1": "1 48048U 21025G   26195.83326248 -.00000153  00000+0 -45300-3 0  9998",
    "line2": "2 48048  87.8986 314.7112 0002126  97.6570 262.4801 13.13472693257158"
  },
  {
    "name": "ONEWEB-0101",
    "noradId": "48049",
    "line1": "1 48049U 21025H   26195.79601895  .00000126  00000+0  30944-3 0  9994",
    "line2": "2 48049  87.8977 314.7313 0002078 103.3489 256.7872 13.13470294257128"
  },
  {
    "name": "ONEWEB-0113",
    "noradId": "48050",
    "line1": "1 48050U 21025J   26195.81149942 -.00000268  00000+0 -76480-3 0  9993",
    "line2": "2 48050  87.8981 314.6355 0001876  96.0802 264.0541 13.13890944257237"
  },
  {
    "name": "ONEWEB-0112",
    "noradId": "48051",
    "line1": "1 48051U 21025K   26195.83833958  .00000009  00000+0 -10395-4 0  9999",
    "line2": "2 48051  87.8985 314.7083 0002196 102.7750 257.3624 13.13470492257222"
  },
  {
    "name": "ONEWEB-0156",
    "noradId": "48052",
    "line1": "1 48052U 21025L   26195.84679834  .00000080  00000+0  18338-3 0  9994",
    "line2": "2 48052  87.8985 314.7163 0002024  95.9587 264.1773 13.13472233257207"
  },
  {
    "name": "ONEWEB-0161",
    "noradId": "48053",
    "line1": "1 48053U 21025M   26195.82140440 -.00000338  00000+0 -95954-3 0  9996",
    "line2": "2 48053  87.8985 314.7222 0002095  96.4611 263.6757 13.13469410257137"
  }
]